     2.10           N: GPS NAV DATA                         RINEX VERSION / TYPE
teqc  2016Nov7                          20180121 22:03:05UTCPGM / RUN BY / DATE
Linux 2.4.21-27.ELsmp|Opteron|gcc|Linux x86_64|=+           COMMENT
                                                            END OF HEADER
 1 18  1 21 18  0  0.0-2.466887235641D-05-1.932676241267D-12 0.000000000000D+00
    4.100000000000D+01-5.803125000000D+01 4.533045938615D-09 1.482422101014D+00
   -3.090128302574D-06 7.258802768774D-03 3.853812813759D-06 5.153676012039D+03
    6.480000000000D+04-4.842877388000D-08-4.914390563750D-01 1.080334186554D-07
    9.701175259975D-01 3.097812500000D+02 6.188714218160D-01-8.338204793290D-09
   -1.310768854568D-10 1.000000000000D+00 1.985000000000D+03 0.000000000000D+00
    2.000000000000D+00 0.000000000000D+00 5.587935447693D-09 4.100000000000D+01
    0.000000000000D+00
 2 18  1 21 22  0  0.0 2.218936569989D-04-1.034550223267D-11 0.000000000000D+00
    6.800000000000D+01-5.734375000000D+01 4.829487032509D-09-2.298928951116D+00
   -2.877786755562D-06 1.768513862044D-02 3.067776560783D-06 5.153666616440D+03
    7.920000000000D+04 2.384185791016D-07-5.500090136717D-01-4.470348358154D-08
    9.491071067835D-01 3.115000000000D+02-1.908682976764D+00-8.167840626072D-09
    3.714440560687D-11 1.000000000000D+00 1.985000000000D+03 0.000000000000D+00
    2.000000000000D+00 0.000000000000D+00-2.048909664154D-08 6.800000000000D+01
    7.560000000000D+04
 3 18  1 21 20  0  0.0-5.755107849836D-06 6.934897101019D-12 0.000000000000D+00
    9.200000000000D+01-6.631250000000D+01 4.321965896281D-09 1.537915616198D+00
   -3.550201654434D-06 1.168841379695D-03 1.054815948009D-05 5.153579811096D+03
    7.200000000000D+04 3.725290298462D-09 5.508227399095D-01-1.862645149231D-08
    9.608069404142D-01 1.733437500000D+02 5.495900017496D-01-7.926758804899D-09
    2.107230709369D-11 1.000000000000D+00 1.985000000000D+03 0.000000000000D+00
    2.000000000000D+00 0.000000000000D+00 2.328306436539D-09 9.200000000000D+01
    7.560000000000D+04
 4 17  8  2 15 59 44.0 4.576519131660D-06 4.888534022029D-12 0.000000000000D+00
    6.000000000000D+01-7.962500000000D+01 4.706624423534D-09 2.993542456168D+00
   -4.140660166740D-06 1.228858088143D-02 4.697591066360D-06 5.153667594910D+03
    3.167840000000D+05-1.341104507446D-07 1.492407691628D+00-1.080334186554D-07
    9.564773656015D-01 2.878437500000D+02 4.285168958487D-01-8.103908655244D-09
   -1.392915227605D-10 1.000000000000D+00 1.960000000000D+03 0.000000000000D+00
    2.000000000000D+00 1.000000000000D+00-5.587935447693D-09 6.000000000000D+01
    0.000000000000D+00
 5 18  1 21 22  0  0.0-1.633772626519D-05 1.023181539495D-12 0.000000000000D+00
    5.100000000000D+01-5.975000000000D+01 4.595905878091D-09 2.611417583339D-01
   -3.032386302948D-06 5.274828290567D-03 1.028180122375D-05 5.153634870529D+03
    7.920000000000D+04 0.000000000000D+00 5.306688650826D-01 9.872019290924D-08
    9.477294958462D-01 1.743125000000D+02 6.311952602276D-01-8.117123861950D-09
    4.357324223658D-11 1.000000000000D+00 1.985000000000D+03 0.000000000000D+00
    2.000000000000D+00 0.000000000000D+00-1.071020960808D-08 5.100000000000D+01
    7.560000000000D+04
 6 18  1 21 22  0  0.0 4.148609004915D-04 1.136868377216D-13 0.000000000000D+00
    3.200000000000D+01-4.928125000000D+01 4.530188668639D-09-2.425045718717D+00
   -2.555549144745D-06 1.011196407489D-03 3.859400749207D-06 5.153555677414D+03
    7.920000000000D+04 8.195638656616D-08-4.998905111320D-01 1.490116119385D-08
    9.698495706075D-01 3.115000000000D+02-1.273970479653D+00-8.243557836352D-09
   -1.217907857898D-10 1.000000000000D+00 1.985000000000D+03 0.000000000000D+00
    2.000000000000D+00 0.000000000000D+00 4.656612873077D-09 3.200000000000D+01
    7.560000000000D+04
 7 18  1 21 16  0  0.0 2.483143471181D-04-5.456968210638D-12 0.000000000000D+00
    4.400000000000D+01-1.728125000000D+01 4.893775162884D-09-2.444735096573D-01
   -9.406358003616D-07 1.112356036901D-02 5.779787898064D-06 5.153693140030D+03
    5.760000000000D+04 1.676380634308D-08 2.663950964251D+00 1.229345798492D-07
    9.598875710102D-01 2.656875000000D+02-2.545542620685D+00-8.447852195559D-09
   -4.503759032382D-10 1.000000000000D+00 1.985000000000D+03 0.000000000000D+00
    2.000000000000D+00 0.000000000000D+00-1.117587089539D-08 4.400000000000D+01
    0.000000000000D+00
 8 18  1 21 16  0  0.0-8.841836825013D-05-1.250555214938D-12 0.000000000000D+00
    6.100000000000D+01 6.853125000000D+01 4.350181104229D-09 3.058666207462D+00
    3.604218363762D-06 3.228837624192D-03 5.431473255157D-06 5.153754432678D+03
    5.760000000000D+04-3.166496753693D-08-1.555943859353D+00 4.842877388000D-08
    9.682548084993D-01 2.778750000000D+02-5.843786047545D-01-8.131410211831D-09
    3.207276388917D-10 1.000000000000D+00 1.985000000000D+03 0.000000000000D+00
    2.000000000000D+00 0.000000000000D+00 5.587935447693D-09 6.100000000000D+01
    0.000000000000D+00
 9 18  1 21 14  0  0.0 4.949290305376D-04 3.183231456205D-12 0.000000000000D+00
    4.200000000000D+01 4.709375000000D+01 4.885203352956D-09 1.810676065949D+00
    2.320855855942D-06 1.168409711681D-03 7.651746273041D-06 5.153694194794D+03
    5.040000000000D+04-7.450580596924D-09 1.585676678918D+00 7.450580596924D-09
    9.525035900206D-01 2.245000000000D+02 1.747289788810D+00-8.223199898794D-09
    3.267993375911D-10 1.000000000000D+00 1.985000000000D+03 0.000000000000D+00
    2.000000000000D+00 0.000000000000D+00 1.396983861923D-09 4.200000000000D+01
    0.000000000000D+00
10 18  1 21 20  0  0.0 1.493734307587D-04 5.456968210638D-12 0.000000000000D+00
    3.900000000000D+01-6.021875000000D+01 4.360538596870D-09 5.199388013095D-01
   -3.103166818619D-06 3.200633684173D-03 1.100264489651D-05 5.153673519135D+03
    7.200000000000D+04 3.725290298462D-08 5.472881703719D-01 5.774199962616D-08
    9.609278184093D-01 1.667500000000D+02-2.857507654046D+00-7.952117186960D-09
   -4.643050700859D-12 1.000000000000D+00 1.985000000000D+03 0.000000000000D+00
    2.000000000000D+00 0.000000000000D+00 1.862645149231D-09 3.900000000000D+01
    7.560000000000D+04
11 18  1 21 18  0  0.0-7.345648482442D-04-9.094947017729D-13 0.000000000000D+00
    3.800000000000D+01-1.187500000000D+00 6.225616466793D-09 7.895035796617D-01
   -2.849847078323D-07 1.676966797095D-02 2.561137080193D-06 5.153752021790D+03
    6.480000000000D+04-2.011656761169D-07-9.100277518858D-01-1.676380634308D-07
    9.037802943970D-01 3.018750000000D+02 1.734767406083D+00-9.401105671714D-09
    8.607501517099D-11 1.000000000000D+00 1.985000000000D+03 0.000000000000D+00
    2.000000000000D+00 0.000000000000D+00-1.210719347000D-08 3.800000000000D+01
    0.000000000000D+00
12 18  1 21 22  0  0.0 3.543244674802D-04-1.932676241267D-12 0.000000000000D+00
    9.200000000000D+01 2.556250000000D+01 3.660152403384D-09 2.325366619391D+00
    1.136213541031D-06 6.823278730735D-03 1.045316457748D-05 5.153664333344D+03
    7.920000000000D+04-6.332993507385D-08-2.530196038032D+00-9.872019290924D-08
    9.878771218017D-01 1.900000000000D+02 9.118684612444D-01-7.528885070940D-09
   -2.264380072337D-10 1.000000000000D+00 1.985000000000D+03 0.000000000000D+00
    2.000000000000D+00 0.000000000000D+00-1.257285475731D-08 9.200000000000D+01
    7.560000000000D+04
13 18  1 21 17 59 44.0-9.541492909193D-05-1.136868377216D-13 0.000000000000D+00
    3.200000000000D+01 4.828125000000D+01 4.631621308704D-09 2.199466847891D+00
    2.425163984299D-06 3.705306793563D-03 7.277354598045D-06 5.153655359268D+03
    6.478400000000D+04 5.401670932770D-08 1.715423129139D+00-1.862645149231D-09
    9.683432418971D-01 2.431875000000D+02 1.637460457681D+00-8.028191444964D-09
    3.432285844429D-10 1.000000000000D+00 1.985000000000D+03 0.000000000000D+00
    2.000000000000D+00 0.000000000000D+00-1.117587089539D-08 3.200000000000D+01
    0.000000000000D+00
14 18  1 21 22  0  0.0-9.276065975428D-05-5.684341886081D-13 0.000000000000D+00
    6.800000000000D+01 4.765625000000D+01 4.817343413066D-09-8.420206534257D-01
    2.628192305565D-06 9.284998872317D-03 7.731840014458D-06 5.153728828430D+03
    7.920000000000D+04-5.587935447693D-08 1.674235464982D+00 2.030283212662D-07
    9.608880884801D-01 2.331875000000D+02-1.956789702157D+00-8.296059839097D-09
    4.032310874091D-10 1.000000000000D+00 1.985000000000D+03 0.000000000000D+00
    2.000000000000D+00 0.000000000000D+00-9.778887033463D-09 6.800000000000D+01
    7.560000000000D+04
15 18  1 21 20  0  0.0-3.573005087674D-04 1.136868377216D-13 0.000000000000D+00
    3.900000000000D+01 4.734375000000D+01 5.435226491102D-09-2.417428389127D+00
    2.156943082809D-06 1.012630888727D-02 8.173286914825D-06 5.153677711487D+03
    7.200000000000D+04 6.146728992462D-08 1.517881421237D+00-1.266598701477D-07
    9.280972288492D-01 2.042187500000D+02 6.622544959123D-01-8.357847747220D-09
    4.903775718823D-10 1.000000000000D+00 1.985000000000D+03 0.000000000000D+00
    2.000000000000D+00 0.000000000000D+00-1.071020960808D-08 3.900000000000D+01
    7.560000000000D+04
16 18  1 21 12  0  0.0 3.370549529791D-05-5.684341886081D-13 0.000000000000D+00
    3.900000000000D+01 4.493750000000D+01 3.641223100814D-09 1.436404289513D+00
    2.454966306686D-06 9.745251620188D-03 1.091323792934D-05 5.153576953888D+03
    4.320000000000D+04-5.401670932770D-08-2.511037180103D+00 1.005828380585D-07
    9.883193677887D-01 1.854062500000D+02 4.563324208313D-01-7.654604949892D-09
   -2.100087465040D-10 1.000000000000D+00 1.985000000000D+03 0.000000000000D+00
    2.000000000000D+00 0.000000000000D+00-1.071020960808D-08 3.900000000000D+01
    0.000000000000D+00
